{
    "links": {
        "self": "http://www.neowsapp.com/rest/v1/neo/3381257?api_key=iIulBulltgU6a56xZRHN4H3l9WmuAYTsLGpBGhQ2"
    },
    "id": "3381257",
    "neo_reference_id": "3381257",
    "name": "(2007 PP9)",
    "designation": "2007 PP9",
    "nasa_jpl_url": "http://ssd.jpl.nasa.gov/sbdb.cgi?sstr=3381257",
    "absolute_magnitude_h": 21.3,
    "estimated_diameter": {
        "kilometers": {
            "estimated_diameter_min": 0.1460679643,
            "estimated_diameter_max": 0.3266178974
        },
        "meters": {
            "estimated_diameter_min": 146.0679642714,
            "estimated_diameter_max": 326.6178974458
        },
        "miles": {
            "estimated_diameter_min": 0.090762397,
            "estimated_diameter_max": 0.2029508896
        },
        "feet": {
            "estimated_diameter_min": 479.2256199,
            "estimated_diameter_max": 1071.581062656
        }
    },
    "is_potentially_hazardous_asteroid": false,
    "close_approach_data": [
        {
            "close_approach_date": "2007-08-29",
            "close_approach_date_full": "2007-Aug-29 23:39",
            "epoch_date_close_approach": 1188430740000,
            "relative_velocity": {
                "kilometers_per_second": "8.2605603574",
                "kilometers_per_hour": "29738.0172864998",
                "miles_per_hour": "18478.047463381"
            },
            "miss_distance": {
                "astronomical": "0.1026396724",
                "lunar": "39.9268325636",
                "kilometers": "15354676.368537788",
                "miles": "9540953.4755179544"
            },
            "orbiting_body": "Earth"
        },
        {
            "close_approach_date": "2158-07-30",
            "close_approach_date_full": "2158-Jul-30 08:37",
            "epoch_date_close_approach": 5950917420000,
            "relative_velocity": {
                "kilometers_per_second": "20.4387247709",
                "kilometers_per_hour": "73579.4091750773",
                "miles_per_hour": "45719.3834399251"
            },
            "miss_distance": {
                "astronomical": "0.4854345748",
                "lunar": "188.8340495972",
                "kilometers": "72619978.414435676",
                "miles": "45123962.1608012888"
            },
            "orbiting_body": "Earth"
        },
        {
            "close_approach_date": "2169-09-08",
            "close_approach_date_full": "2169-Sep-08 08:06",
            "epoch_date_close_approach": 6301526760000,
            "relative_velocity": {
                "kilometers_per_second": "10.8031989481",
                "kilometers_per_hour": "38891.5162132626",
                "miles_per_hour": "24165.6757270686"
            },
            "miss_distance": {
                "astronomical": "0.0866095346",
                "lunar": "33.6911089594",
                "kilometers": "12956601.897851302",
                "miles": "8050859.0960278876"
            },
            "orbiting_body": "Mars"
        },
        {
            "close_approach_date": "2183-11-09",
            "close_approach_date_full": "2183-Nov-09 12:14",
            "epoch_date_close_approach": 6748661640000,
            "relative_velocity": {
                "kilometers_per_second": "19.353214468",
                "kilometers_per_hour": "69671.5720848392",
                "miles_per_hour": "43291.2054434936"
            },
            "miss_distance": {
                "astronomical": "0.4709098848",
                "lunar": "183.1839451872",
                "kilometers": "70447115.728025376",
                "miles": "43773807.8949511488"
            },
            "orbiting_body": "Earth"
        }
    ],
    "orbital_data": {
        "orbit_id": "23",
        "orbit_determination_date": "2017-04-06 09:06:14",
        "first_observation_date": "2007-08-11",
        "last_observation_date": "2007-11-02",
        "data_arc_in_days": 83,
        "observations_used": 150,
        "orbit_uncertainty": "6",
        "minimum_orbit_intersection": ".0797762",
        "jupiter_tisserand_invariant": "3.340",
        "epoch_osculation": "2459000.5",
        "eccentricity": ".5432091519793228",
        "semi_major_axis": "2.34773522972479",
        "inclination": "5.118260200618985",
        "ascending_node_longitude": "325.4876912466759",
        "orbital_period": "1313.929617671762",
        "perihelion_distance": "1.072423966514006",
        "perihelion_argument": "32.04305071521046",
        "aphelion_distance": "3.623046492935574",
        "perihelion_time": "2459616.433979587270",
        "mean_anomaly": "191.241925237726",
        "mean_motion": ".273987278434219",
        "equinox": "J2000",
        "orbit_class": {
            "orbit_class_type": "AMO",
            "orbit_class_description": "Near-Earth asteroid orbits similar to that of 1221 Amor",
            "orbit_class_range": "1.017 AU < q (perihelion) < 1.3 AU"
        }
    },
    "is_sentry_object": false
}